H1 CPF  1  DGF 2022 02 26 11  5571 larets     NONE      
H2   304206 5557    27944 2022 02 26 00 00 00 2022 03 05 00 00 00    30 1 1  0 0 0
H5  0.0650
H9
10 0 59640  82800.000000  0       2469744.613       3673792.924      -5503768.550
10 0 59640  82830.000000  0       2614665.416       3779546.532      -5363631.331
10 0 59640  82860.000000  0       2757396.721       3880851.058      -5218033.306
10 0 59640  82890.000000  0       2897774.209       3977613.497      -5067121.972
10 0 59640  82920.000000  0       3035635.499       4069746.115      -4911050.268
10 0 59640  82950.000000  0       3170820.341       4157166.534      -4749976.432
10 0 59640  82980.000000  0       3303170.799       4239797.810      -4584063.841
10 0 59640  83010.000000  0       3432531.444       4317568.505      -4413480.849
10 0 59640  83040.000000  0       3558749.530       4390412.754      -4238400.625
10 0 59640  83070.000000  0       3681675.188       4458270.322      -4059000.978
10 0 59640  83100.000000  0       3801161.600       4521086.663      -3875464.182
10 0 59640  83130.000000  0       3917065.184       4578812.963      -3687976.790
10 0 59640  83160.000000  0       4029245.768       4631406.181      -3496729.444
10 0 59640  83190.000000  0       4137566.758       4678829.081      -3301916.679
10 0 59640  83220.000000  0       4241895.310       4721050.257      -3103736.729
10 0 59640  83250.000000  0       4342102.489       4758044.155      -2902391.324
10 0 59640  83280.000000  0       4438063.435       4789791.083      -2698085.484
10 0 59640  83310.000000  0       4529657.514       4816277.221      -2491027.315
10 0 59640  83340.000000  0       4616768.478       4837494.619      -2281427.795
10 0 59640  83370.000000  0       4699284.615       4853441.198      -2069500.551
10 0 59640  83400.000000  0       4777098.893       4864120.729      -1855461.645
10 0 59640  83430.000000  0       4850109.101       4869542.814      -1639529.339
10 0 59640  83460.000000  0       4918217.980       4869722.854      -1421923.871
10 0 59640  83490.000000  0       4981333.349       4864682.013      -1202867.227
10 0 59640  83520.000000  0       5039368.229       4854447.180       -982582.909
10 0 59640  83550.000000  0       5092240.954       4839050.915       -761295.700
10 0 59640  83580.000000  0       5139875.285       4818531.400       -539231.431
10 0 59640  83610.000000  0       5182200.511       4792932.371       -316616.745
10 0 59640  83640.000000  0       5219151.547       4762303.051        -93678.860
10 0 59640  83670.000000  0       5250669.024       4726698.080        129354.665
10 0 59640  83700.000000  0       5276699.375       4686177.435        352256.171
10 0 59640  83730.000000  0       5297194.915       4640806.338        574798.133
10 0 59640  83760.000000  0       5312113.915       4590655.168        796753.403
10 0 59640  83790.000000  0       5321420.665       4535799.361       1017895.446
10 0 59640  83820.000000  0       5325085.535       4476319.303       1237998.574
10 0 59640  83850.000000  0       5323085.023       4412300.221       1456838.188
10 0 59640  83880.000000  0       5315401.807       4343832.069       1674191.011
10 0 59640  83910.000000  0       5302024.774       4271009.400       1889835.324
10 0 59640  83940.000000  0       5282949.048       4193931.243       2103551.202
10 0 59640  83970.000000  0       5258176.013       4112700.968       2315120.736
10 0 59640  84000.000000  0       5227713.321       4027426.148       2524328.265
10 0 59640  84030.000000  0       5191574.902       3938218.420       2730960.595
10 0 59640  84060.000000  0       5149780.959       3845193.343       2934807.221
10 0 59640  84090.000000  0       5102357.962       3748470.241       3135660.544
10 0 59640  84120.000000  0       5049338.630       3648172.057       3333316.084
10 0 59640  84150.000000  0       4990761.911       3544425.192       3527572.690
10 0 59640  84180.000000  0       4926672.946       3437359.345       3718232.746
10 0 59640  84210.000000  0       4857123.034       3327107.353       3905102.371
10 0 59640  84240.000000  0       4782169.586       3213805.016       4087991.614
10 0 59640  84270.000000  0       4701876.077       3097590.932       4266714.640
10 0 59640  84300.000000  0       4616311.988       2978606.328       4441089.914
10 0 59640  84330.000000  0       4525552.750       2856994.890       4610940.389
10 0 59640  84360.000000  0       4429679.673       2732902.591       4776093.689
10 0 59640  84390.000000  0       4328779.857       2606477.511       4936382.283
10 0 59640  84420.000000  0       4222946.100       2477869.655       5091643.652
10 0 59640  84450.000000  0       4112276.814       2347230.779       5241720.442
10 0 59640  84480.000000  0       3996875.923       2214714.207       5386460.614
10 0 59640  84510.000000  0       3876852.766       2080474.654       5525717.598
10 0 59640  84540.000000  0       3752321.985       1944668.041       5659350.437
10 0 59640  84570.000000  0       3623403.412       1807451.316       5787223.918
10 0 59640  84600.000000  0       3490221.948       1668982.265       5909208.705
10 0 59640  84630.000000  0       3352907.436       1529419.336       6025181.459
10 0 59640  84660.000000  0       3211594.534       1388921.455       6135024.960
10 0 59640  84690.000000  0       3066422.578       1247647.845       6238628.206
10 0 59640  84720.000000  0       2917535.441       1105757.852       6335886.529
10 0 59640  84750.000000  0       2765081.390        963410.763       6426701.685
10 0 59640  84780.000000  0       2609212.938        820765.633       6510981.947
10 0 59640  84810.000000  0       2450086.690        677981.112       6588642.200
10 0 59640  84840.000000  0       2287863.187        535215.267       6659604.016
10 0 59640  84870.000000  0       2122706.740        392625.412       6723795.733
10 0 59640  84900.000000  0       1954785.267        250367.936       6781152.521
10 0 59640  84930.000000  0       1784270.121        108598.133       6831616.444
10 0 59640  84960.000000  0       1611335.916        -32529.963       6875136.523
10 0 59640  84990.000000  0       1436160.343       -172863.751       6911668.774
10 0 59640  85020.000000  0       1258923.993       -312252.221       6941176.256
10 0 59640  85050.000000  0       1079810.166       -450546.123       6963629.099
10 0 59640  85080.000000  0        899004.688       -587598.114       6979004.531
10 0 59640  85110.000000  0        716695.721       -723262.920       6987286.900
10 0 59640  85140.000000  0        533073.567       -857397.485       6988467.692
10 0 59640  85170.000000  0        348330.469       -989861.122       6982545.542
10 0 59640  85200.000000  0        162660.417      -1120515.657       6969526.229
10 0 59640  85230.000000  0        -23741.060      -1249225.576       6949422.675
10 0 59640  85260.000000  0       -210677.092      -1375858.164       6922254.930
10 0 59640  85290.000000  0       -397949.674      -1500283.639       6888050.155
10 0 59640  85320.000000  0       -585359.879      -1622375.286       6846842.598
10 0 59640  85350.000000  0       -772708.061      -1742009.585       6798673.557
10 0 59640  85380.000000  0       -959794.066      -1859066.335       6743591.341
10 0 59640  85410.000000  0      -1146417.440      -1973428.772       6681651.229
10 0 59640  85440.000000  0      -1332377.639      -2084983.685       6612915.416
10 0 59640  85470.000000  0      -1517474.243      -2193621.527       6537452.961
10 0 59640  85500.000000  0      -1701507.165      -2299236.525       6455339.726
10 0 59640  85530.000000  0      -1884276.870      -2401726.780       6366658.310
10 0 59640  85560.000000  0      -2065584.589      -2500994.371       6271497.972
10 0 59640  85590.000000  0      -2245232.532      -2596945.453       6169954.556
10 0 59640  85620.000000  0      -2423024.112      -2689490.347       6062130.401
10 0 59640  85650.000000  0      -2598764.160      -2778543.631       5948134.250
10 0 59640  85680.000000  0      -2772259.146      -2864024.219       5828081.140
10 0 59640  85710.000000  0      -2943317.398      -2945855.441       5702092.299
10 0 59640  85740.000000  0      -3111749.313      -3023965.111       5570295.020
10 0 59640  85770.000000  0      -3277367.570      -3098285.595       5432822.545
10 0 59640  85800.000000  0      -3439987.344      -3168753.868       5289813.931
10 0 59640  85830.000000  0      -3599426.511      -3235311.577       5141413.916
10 0 59640  85860.000000  0      -3755505.860      -3297905.085       4987772.782
10 0 59640  85890.000000  0      -3908049.292      -3356485.519       4829046.202
10 0 59640  85920.000000  0      -4056884.030      -3411008.807       4665395.094
10 0 59640  85950.000000  0      -4201840.815      -3461435.716       4496985.459
10 0 59640  85980.000000  0      -4342754.107      -3507731.876       4323988.219
10 0 59640  86010.000000  0      -4479462.275      -3549867.804       4146579.045
10 0 59640  86040.000000  0      -4611807.789      -3587818.922       3964938.184
10 0 59640  86070.000000  0      -4739637.405      -3621565.566       3779250.284
10 0 59640  86100.000000  0      -4862802.352      -3651092.996       3589704.203
10 0 59640  86130.000000  0      -4981158.510      -3676391.390       3396492.825
10 0 59640  86160.000000  0      -5094566.589      -3697455.846       3199812.866
10 0 59640  86190.000000  0      -5202892.296      -3714286.368       2999864.668
10 0 59640  86220.000000  0      -5306006.505      -3726887.851       2796851.998
10 0 59640  86250.000000  0      -5403785.415      -3735270.055       2590981.835
10 0 59640  86280.000000  0      -5496110.704      -3739447.577       2382464.159
10 0 59640  86310.000000  0      -5582869.677      -3739439.815       2171511.730
10 0 59640  86340.000000  0      -5663955.408      -3735270.928       1958339.867
10 0 59640  86370.000000  0      -5739266.877      -3726969.790       1743166.229
99
